TECHNOSAT               
1 42829U 17042E   26073.41703466  .00003803  00000+0  27602-3 0  9991
2 42829  97.4143 234.7831 0019062  60.2212 300.0908 15.04324760472458
FLYING LAPTOP           
1 42831U 17042G   26073.64602280  .00002846  00000+0  22923-3 0  9998
2 42831  97.4279 233.0997 0019632  79.8881 280.4557 15.00553935472272
HAWK-A                  
1 43765U 18099H   26073.60304555  .00010039  00000+0  41890-3 0  9995
2 43765  97.4048 127.1033 0034253 257.4118 102.3288 15.23319804398696
HAWK-B                  
1 43794U 18099AN  26073.58047509  .00008809  00000+0  38806-3 0  9992
2 43794  97.4095 126.6865 0031225 275.4873  84.2801 15.21613936398646
HAWK-C                  
1 43799U 18099AT  26073.58911206  .00011586  00000+0  43596-3 0  9999
2 43799  97.4025 127.5547 0040372 259.3820 100.2870 15.26510422399475
SALSAT                  
1 46495U 20068K   26073.51831201  .00012617  00000+0  46004-3 0  9996
2 46495  97.8858  70.9296 0008068 275.9056  84.1263 15.28293668300898
HAWK-2C                 
1 47502U 21006CT  26073.57045696  .00009230  00000+0  28833-3 0  9997
2 47502  97.2414 119.7917 0007493 167.8105 192.3321 15.33368638284992
HAWK-2A                 
1 47505U 21006CW  26073.57390868  .00009251  00000+0  28883-3 0  9992
2 47505  97.2456 120.4170 0007011 170.2878 189.8502 15.33387413284996
HAWK-2B                 
1 47508U 21006CZ  26073.37497467  .00008679  00000+0  27114-3 0  9995
2 47508  97.2332 118.7127 0007647 169.2741 190.8667 15.33380862284968
HAWK-3B                 
1 48931U 21059BE  26073.48347700  .00046305  00000+0  53016-3 0  9998
2 48931  97.6721 261.7642 0004926 318.8898  41.1987 15.61990894263039
HAWK-3C                 
1 48948U 21059BX  26073.61134579  .00050038  00000+0  57205-3 0  9991
2 48948  97.6870 267.4126 0005363 319.9921  40.0940 15.62009934263053
HAWK-3A                 
1 48957U 21059CG  26073.48306405  .00045086  00000+0  51632-3 0  9990
2 48957  97.6804 264.5573 0005044 318.4706  41.6167 15.61990239263037
HAWK-5C                 
1 52754U 22057Y   26073.37948190  .00025430  00000+0  49120-3 0  9990
2 52754  97.6452 227.2764 0005413  60.5056 299.6733 15.47770178211665
HAWK-5B                 
1 52756U 22057AA  26073.37935191  .00025983  00000+0  50183-3 0  9993
2 52756  97.6457 225.6165 0005238  54.8990 305.2750 15.47769669211663
HAWK-5A                 
1 52757U 22057AB  26073.37907711  .00025619  00000+0  49483-3 0  9998
2 52757  97.6458 226.4506 0005691  57.0598 303.1198 15.47769248211661
HAWK-6B                 
1 55324U 23011A   26073.59451001  .00007926  00000+0  34815-3 0  9996
2 55324  40.5094 183.4199 0001526  81.3606 278.7377 15.21982067173425
HAWK-6C                 
1 55326U 23011C   26073.59392781  .00009014  00000+0  39465-3 0  9993
2 55326  40.4872 180.2814 0001939  59.4019 300.6981 15.21986641173430
