[{"OBJECT_NAME":"TECHNOSAT","OBJECT_ID":"2017-042E","EPOCH":"2026-03-14T10:00:31.794624","MEAN_MOTION":15.0432476,"ECCENTRICITY":0.00190621,"INCLINATION":97.4143,"RA_OF_ASC_NODE":234.7831,"ARG_OF_PERICENTER":60.2212,"MEAN_ANOMALY":300.0908,"EPHEMERIS_TYPE":0,"CLASSIFICATION_TYPE":"U","NORAD_CAT_ID":42829,"ELEMENT_SET_NO":999,"REV_AT_EPOCH":47245,"BSTAR":0.00027601648,"MEAN_MOTION_DOT":3.803e-5,"MEAN_MOTION_DDOT":0},{"OBJECT_NAME":"FLYING LAPTOP","OBJECT_ID":"2017-042G","EPOCH":"2026-03-14T15:30:16.369920","MEAN_MOTION":15.00553935,"ECCENTRICITY":0.00196324,"INCLINATION":97.4279,"RA_OF_ASC_NODE":233.0997,"ARG_OF_PERICENTER":79.8881,"MEAN_ANOMALY":280.4557,"EPHEMERIS_TYPE":0,"CLASSIFICATION_TYPE":"U","NORAD_CAT_ID":42831,"ELEMENT_SET_NO":999,"REV_AT_EPOCH":47227,"BSTAR":0.00022923156,"MEAN_MOTION_DOT":2.846e-5,"MEAN_MOTION_DDOT":0},{"OBJECT_NAME":"HAWK-A","OBJECT_ID":"2018-099H","EPOCH":"2026-03-14T14:28:23.135520","MEAN_MOTION":15.23319804,"ECCENTRICITY":0.0034253,"INCLINATION":97.4048,"RA_OF_ASC_NODE":127.1033,"ARG_OF_PERICENTER":257.4118,"MEAN_ANOMALY":102.3288,"EPHEMERIS_TYPE":0,"CLASSIFICATION_TYPE":"U","NORAD_CAT_ID":43765,"ELEMENT_SET_NO":999,"REV_AT_EPOCH":39869,"BSTAR":0.00041890277,"MEAN_MOTION_DOT":0.00010039,"MEAN_MOTION_DDOT":0},{"OBJECT_NAME":"HAWK-B","OBJECT_ID":"2018-099AN","EPOCH":"2026-03-14T13:55:53.047776","MEAN_MOTION":15.21613936,"ECCENTRICITY":0.00312251,"INCLINATION":97.4095,"RA_OF_ASC_NODE":126.6865,"ARG_OF_PERICENTER":275.4873,"MEAN_ANOMALY":84.2801,"EPHEMERIS_TYPE":0,"CLASSIFICATION_TYPE":"U","NORAD_CAT_ID":43794,"ELEMENT_SET_NO":999,"REV_AT_EPOCH":39864,"BSTAR":0.00038805754,"MEAN_MOTION_DOT":8.809e-5,"MEAN_MOTION_DDOT":0},{"OBJECT_NAME":"HAWK-C","OBJECT_ID":"2018-099AT","EPOCH":"2026-03-14T14:08:19.281984","MEAN_MOTION":15.26510422,"ECCENTRICITY":0.0040372,"INCLINATION":97.4025,"RA_OF_ASC_NODE":127.5547,"ARG_OF_PERICENTER":259.382,"MEAN_ANOMALY":100.287,"EPHEMERIS_TYPE":0,"CLASSIFICATION_TYPE":"U","NORAD_CAT_ID":43799,"ELEMENT_SET_NO":999,"REV_AT_EPOCH":39947,"BSTAR":0.00043595753,"MEAN_MOTION_DOT":0.00011586,"MEAN_MOTION_DDOT":0},{"OBJECT_NAME":"SALSAT","OBJECT_ID":"2020-068K","EPOCH":"2026-03-14T12:26:22.157664","MEAN_MOTION":15.28293668,"ECCENTRICITY":0.00080685,"INCLINATION":97.8858,"RA_OF_ASC_NODE":70.9296,"ARG_OF_PERICENTER":275.9056,"MEAN_ANOMALY":84.1263,"EPHEMERIS_TYPE":0,"CLASSIFICATION_TYPE":"U","NORAD_CAT_ID":46495,"ELEMENT_SET_NO":999,"REV_AT_EPOCH":30089,"BSTAR":0.00046003648,"MEAN_MOTION_DOT":0.00012617,"MEAN_MOTION_DDOT":0},{"OBJECT_NAME":"HAWK-2C","OBJECT_ID":"2021-006CT","EPOCH":"2026-03-14T13:41:27.481344","MEAN_MOTION":15.33368638,"ECCENTRICITY":0.00074932,"INCLINATION":97.2414,"RA_OF_ASC_NODE":119.7917,"ARG_OF_PERICENTER":167.8105,"MEAN_ANOMALY":192.3321,"EPHEMERIS_TYPE":0,"CLASSIFICATION_TYPE":"U","NORAD_CAT_ID":47502,"ELEMENT_SET_NO":999,"REV_AT_EPOCH":28499,"BSTAR":0.0002883337,"MEAN_MOTION_DOT":9.23e-5,"MEAN_MOTION_DDOT":0},{"OBJECT_NAME":"HAWK-2A","OBJECT_ID":"2021-006CW","EPOCH":"2026-03-14T13:46:25.709952","MEAN_MOTION":15.33387413,"ECCENTRICITY":0.00070119,"INCLINATION":97.2456,"RA_OF_ASC_NODE":120.417,"ARG_OF_PERICENTER":170.2878,"MEAN_ANOMALY":189.8502,"EPHEMERIS_TYPE":0,"CLASSIFICATION_TYPE":"U","NORAD_CAT_ID":47505,"ELEMENT_SET_NO":999,"REV_AT_EPOCH":28499,"BSTAR":0.00028882656,"MEAN_MOTION_DOT":9.251e-5,"MEAN_MOTION_DDOT":0},{"OBJECT_NAME":"HAWK-2B","OBJECT_ID":"2021-006CZ","EPOCH":"2026-03-14T08:59:57.811488","MEAN_MOTION":15.33380862,"ECCENTRICITY":0.00076476,"INCLINATION":97.2332,"RA_OF_ASC_NODE":118.7127,"ARG_OF_PERICENTER":169.2741,"MEAN_ANOMALY":190.8667,"EPHEMERIS_TYPE":0,"CLASSIFICATION_TYPE":"U","NORAD_CAT_ID":47508,"ELEMENT_SET_NO":999,"REV_AT_EPOCH":28496,"BSTAR":0.00027113828,"MEAN_MOTION_DOT":8.679e-5,"MEAN_MOTION_DDOT":0},{"OBJECT_NAME":"HAWK-3B","OBJECT_ID":"2021-059BE","EPOCH":"2026-03-14T11:36:12.412800","MEAN_MOTION":15.61990894,"ECCENTRICITY":0.00049267,"INCLINATION":97.6721,"RA_OF_ASC_NODE":261.7642,"ARG_OF_PERICENTER":318.8898,"MEAN_ANOMALY":41.1987,"EPHEMERIS_TYPE":0,"CLASSIFICATION_TYPE":"U","NORAD_CAT_ID":48931,"ELEMENT_SET_NO":999,"REV_AT_EPOCH":26303,"BSTAR":0.0005301613,"MEAN_MOTION_DOT":0.00046305,"MEAN_MOTION_DDOT":0},{"OBJECT_NAME":"HAWK-3C","OBJECT_ID":"2021-059BX","EPOCH":"2026-03-14T14:40:20.276256","MEAN_MOTION":15.62009934,"ECCENTRICITY":0.00053636,"INCLINATION":97.687,"RA_OF_ASC_NODE":267.4126,"ARG_OF_PERICENTER":319.9921,"MEAN_ANOMALY":40.094,"EPHEMERIS_TYPE":0,"CLASSIFICATION_TYPE":"U","NORAD_CAT_ID":48948,"ELEMENT_SET_NO":999,"REV_AT_EPOCH":26305,"BSTAR":0.0005720535,"MEAN_MOTION_DOT":0.00050038,"MEAN_MOTION_DDOT":0},{"OBJECT_NAME":"HAWK-3A","OBJECT_ID":"2021-059CG","EPOCH":"2026-03-14T11:35:36.733920","MEAN_MOTION":15.61990239,"ECCENTRICITY":0.00050441,"INCLINATION":97.6804,"RA_OF_ASC_NODE":264.5573,"ARG_OF_PERICENTER":318.4706,"MEAN_ANOMALY":41.6167,"EPHEMERIS_TYPE":0,"CLASSIFICATION_TYPE":"U","NORAD_CAT_ID":48957,"ELEMENT_SET_NO":999,"REV_AT_EPOCH":26303,"BSTAR":0.00051632121,"MEAN_MOTION_DOT":0.00045086,"MEAN_MOTION_DDOT":0},{"OBJECT_NAME":"HAWK-5C","OBJECT_ID":"2022-057Y","EPOCH":"2026-03-14T09:06:27.236160","MEAN_MOTION":15.47770178,"ECCENTRICITY":0.00054139,"INCLINATION":97.6452,"RA_OF_ASC_NODE":227.2764,"ARG_OF_PERICENTER":60.5056,"MEAN_ANOMALY":299.6733,"EPHEMERIS_TYPE":0,"CLASSIFICATION_TYPE":"U","NORAD_CAT_ID":52754,"ELEMENT_SET_NO":999,"REV_AT_EPOCH":21166,"BSTAR":0.00049120447,"MEAN_MOTION_DOT":0.0002543,"MEAN_MOTION_DDOT":0},{"OBJECT_NAME":"HAWK-5B","OBJECT_ID":"2022-057AA","EPOCH":"2026-03-14T09:06:16.005024","MEAN_MOTION":15.47769669,"ECCENTRICITY":0.00052387,"INCLINATION":97.6457,"RA_OF_ASC_NODE":225.6165,"ARG_OF_PERICENTER":54.899,"MEAN_ANOMALY":305.275,"EPHEMERIS_TYPE":0,"CLASSIFICATION_TYPE":"U","NORAD_CAT_ID":52756,"ELEMENT_SET_NO":999,"REV_AT_EPOCH":21166,"BSTAR":0.00050183178,"MEAN_MOTION_DOT":0.00025983,"MEAN_MOTION_DDOT":0},{"OBJECT_NAME":"HAWK-5A","OBJECT_ID":"2022-057AB","EPOCH":"2026-03-14T09:05:52.262304","MEAN_MOTION":15.47769248,"ECCENTRICITY":0.00056917,"INCLINATION":97.6458,"RA_OF_ASC_NODE":226.4506,"ARG_OF_PERICENTER":57.0598,"MEAN_ANOMALY":303.1198,"EPHEMERIS_TYPE":0,"CLASSIFICATION_TYPE":"U","NORAD_CAT_ID":52757,"ELEMENT_SET_NO":999,"REV_AT_EPOCH":21166,"BSTAR":0.00049483048,"MEAN_MOTION_DOT":0.00025619,"MEAN_MOTION_DDOT":0},{"OBJECT_NAME":"HAWK-6B","OBJECT_ID":"2023-011A","EPOCH":"2026-03-14T14:16:05.664864","MEAN_MOTION":15.21982067,"ECCENTRICITY":0.00015265,"INCLINATION":40.5094,"RA_OF_ASC_NODE":183.4199,"ARG_OF_PERICENTER":81.3606,"MEAN_ANOMALY":278.7377,"EPHEMERIS_TYPE":0,"CLASSIFICATION_TYPE":"U","NORAD_CAT_ID":55324,"ELEMENT_SET_NO":999,"REV_AT_EPOCH":17342,"BSTAR":0.0003481464,"MEAN_MOTION_DOT":7.926e-5,"MEAN_MOTION_DDOT":0},{"OBJECT_NAME":"HAWK-6C","OBJECT_ID":"2023-011C","EPOCH":"2026-03-14T14:15:15.362784","MEAN_MOTION":15.21986641,"ECCENTRICITY":0.00019391,"INCLINATION":40.4872,"RA_OF_ASC_NODE":180.2814,"ARG_OF_PERICENTER":59.4019,"MEAN_ANOMALY":300.6981,"EPHEMERIS_TYPE":0,"CLASSIFICATION_TYPE":"U","NORAD_CAT_ID":55326,"ELEMENT_SET_NO":999,"REV_AT_EPOCH":17343,"BSTAR":0.00039464819,"MEAN_MOTION_DOT":9.014e-5,"MEAN_MOTION_DDOT":0}]
